GPS BIIR-2  (PRN 13)    
1 24876U 97035A   25362.68726464  .00000004  00000+0  00000+0 0  9994
2 24876  55.9026 105.2450 0096883  56.8900 304.0323  2.00563713208535
GPS BIIR-4  (PRN 20)    
1 26360U 00025A   25363.79129669 -.00000057  00000+0  00000+0 0  9993
2 26360  55.0554  26.1483 0038898 243.6230 286.5924  2.00566065187870
GPS BIIR-5  (PRN 22)    
1 26407U 00040A   25363.78712112  .00000099  00000+0  00000+0 0  9997
2 26407  54.8872 221.8909 0125101 302.0720  64.8732  2.00568078186551
GPS BIIR-8  (PRN 16)    
1 27663U 03005A   25362.34628259  .00000089  00000+0  00000+0 0  9994
2 27663  54.9200 221.7573 0147977  52.0268 130.5494  2.00569945167887
GPS BIIR-11 (PRN 19)    
1 28190U 04009A   25362.71051191 -.00000036  00000+0  00000+0 0  9994
2 28190  54.9712 282.5752 0108650 167.8701  75.8377  2.00560067159526
GPS BIIR-13 (PRN 02)    
1 28474U 04045A   25362.25054691 -.00000064  00000+0  00000+0 0  9997
2 28474  55.2328 331.7820 0171029 309.9462  22.2348  2.00570084154994
GPS BIIRM-1 (PRN 17)    
1 28874U 05038A   25361.48827932 -.00000031  00000+0  00000+0 0  9998
2 28874  55.0187 280.1070 0131146 293.9094 167.2168  2.00577349148390
GPS BIIRM-2 (PRN 31)    
1 29486U 06042A   25363.49559309  .00000100  00000+0  00000+0 0  9993
2 29486  54.6959 158.0760 0107235  52.3245 320.0063  2.00553428140991
GPS BIIRM-3 (PRN 12)    
1 29601U 06052A   25362.89994189  .00000095  00000+0  00000+0 0  9998
2 29601  54.9675 220.7566 0088091  87.6248 273.4617  2.00574545139998
GPS BIIRM-4 (PRN 15)    
1 32260U 07047A   25363.20652970 -.00000030  00000+0  00000+0 0  9993
2 32260  53.9662  87.0781 0163960  85.4258 276.4619  2.00563693133404
GPS BIIRM-5 (PRN 29)    
1 32384U 07062A   25363.77072867 -.00000033  00000+0  00000+0 0  9993
2 32384  55.1674 280.9626 0031460 162.0998  16.0431  2.00549475132111
GPS BIIRM-6 (PRN 07)    
1 32711U 08012A   25362.62805390  .00000105  00000+0  00000+0 0  9990
2 32711  54.4789 156.7386 0203168 245.1398 112.7278  2.00566228130330
GPS BIIRM-8 (PRN 05)    
1 35752U 09043A   25363.20883685 -.00000053  00000+0  00000+0 0  9994
2 35752  56.1025  34.1337 0051484  81.6304 355.4141  2.00564517119956
GPS BIIF-1  (PRN 25)    
1 36585U 10022A   25363.10809015  .00000105  00000+0  00000+0 0  9999
2 36585  54.2978 215.4136 0126698  65.2740  56.8699  2.00553953114182
GPS BIIF-3  (PRN 24)    
1 38833U 12053A   25362.80546069  .00000092  00000+0  00000+0 0  9991
2 38833  53.5603 150.5808 0176143  64.2158 297.5752  2.00565035 96024
GPS BIIF-4  (PRN 27)    
1 39166U 13023A   25361.67249872 -.00000026  00000+0  00000+0 0  9993
2 39166  54.6391 275.9610 0138811  48.8144 312.4161  2.00564481 92443
GPS BIIF-5  (PRN 30)    
1 39533U 14008A   25363.16280577  .00000099  00000+0  00000+0 0  9997
2 39533  53.6261 156.2548 0079843 226.1691 133.1593  2.00549075 86277
GPS BIIF-6  (PRN 06)    
1 39741U 14026A   25362.94736168 -.00000064  00000+0  00000+0 0  9998
2 39741  56.5772 338.1462 0039565 319.6218  40.0909  2.00560028 85124
GPS BIIF-7  (PRN 09)    
1 40105U 14045A   25363.03377820 -.00000017  00000+0  00000+0 0  9990
2 40105  55.2384  95.2487 0032259 120.2254 240.1031  2.00573445 82664
GPS BIIF-8  (PRN 03)    
1 40294U 14068A   25363.41097580 -.00000051  00000+0  00000+0 0  9996
2 40294  56.8702  37.5012 0060907  68.8540 291.8564  2.00565749 81800
GPS BIIF-9  (PRN 26)    
1 40534U 15013A   25362.04516479  .00000101  00000+0  00000+0 0  9990
2 40534  53.1958 211.2562 0107604  38.8417 321.9962  2.00561596 78390
GPS BIIF-10 (PRN 08)    
1 40730U 15033A   25363.20351956 -.00000022  00000+0  00000+0 0  9999
2 40730  54.1164 274.0951 0111906  27.2524 333.3728  2.00564682 76583
GPS BIIF-11 (PRN 10)    
1 41019U 15062A   25363.26289963 -.00000051  00000+0  00000+0 0  9998
2 41019  56.8443  37.3632 0111195 230.3677 128.7031  2.00566978 74429
GPS BIIF-12 (PRN 32)    
1 41328U 16007A   25362.84726015 -.00000013  00000+0  00000+0 0  9996
2 41328  55.4149  96.2175 0092976 244.0295 115.0195  2.00559821 72426
GPS BIII-1  (PRN 04)    
1 43873U 18109A   25363.50803029 -.00000016  00000+0  00000+0 0  9996
2 43873  55.5759  98.8851 0037584 195.7498 174.6341  2.00553942 51677
GPS BIII-2  (PRN 18)    
1 44506U 19056A   25363.37394476 -.00000067  00000+0  00000+0 0  9994
2 44506  55.7150 337.8929 0057797 198.7250 332.5176  2.00566374 46664
GPS BIII-3  (PRN 23)    
1 45854U 20041A   25363.70044762 -.00000052  00000+0  00000+0 0  9998
2 45854  56.5587  35.5256 0060733 203.9383 146.8172  2.00561254 40634
GPS BIII-4  (PRN 14)    
1 46826U 20078A   25350.04599424  .00000067  00000+0  00000+0 0  9996
2 46826  54.0144 218.2068 0064754 203.3802 339.3962  2.00566891 37830
GPS BIII-5  (PRN 11)    
1 48859U 21054A   25342.17676416 -.00000086  00000+0  00000+0 0  9993
2 48859  55.2581 340.1367 0024678 233.3993 212.8594  2.00553627 32922
GPS BIII-6  (PRN 28)    
1 55268U 23009A   25356.45831094  .00000074  00000+0  00000+0 0  9994
2 55268  55.1065 155.4638 0003704 355.7912   4.4255  2.00554901 21704
GPS BIII-7  (PRN 01)    
1 62339U 24242A   25362.58382990 -.00000065  00000+0  00000+0 0  9999
2 62339  54.9186 341.0992 0012966 346.5216 194.5508  2.00567893  7837
GPS BIII-8  (PRN 21)    
1 64202U 25116A   25362.20380260 -.00000054  00000+0  00000+0 0  9996
2 64202  55.1169  38.0170 0006077 311.5812 144.0093  2.00557029  4446
